ORBCOMM FM103           
1 40091U 14040F   24293.75928481  .00005003  00000+0  11319-2 0  9991
2 40091  47.0048  72.5740 0002851 254.8056 105.2514 14.57266705529029
ORBCOMM FM114           
1 41179U 15081A   24293.51465480  .00005321  00000+0  12011-2 0  9997
2 41179  47.0028 342.9269 0003008 312.4298  47.6332 14.57273322469358
ORBCOMM FM119           
1 41180U 15081B   24293.90215869  .00003764  00000+0  86140-3 0  9990
2 41180  46.9996 250.3243 0001316   4.3303 355.7593 14.57242191470668
ORBCOMM FM105           
1 41181U 15081C   24293.88000775  .00001664  00000+0  52012-3 0  9994
2 41181  47.0010 232.3557 0002289 315.0541  45.0154 14.44749600465997
ORBCOMM FM110           
1 41182U 15081D   24293.55957397  .00005787  00000+0  13034-2 0  9990
2 41182  47.0021 342.1000 0000354 156.0454 204.0448 14.57264101469236
ORBCOMM FM118           
1 41183U 15081E   24293.46902152  .00005775  00000+0  13004-2 0  9994
2 41183  47.0045 342.8738 0000700 152.1477 207.9445 14.57274469469322
ORBCOMM FM112           
1 41184U 15081F   24293.87978535  .00003991  00000+0  91118-3 0  9999
2 41184  46.9980 249.6273 0001951 352.8040   7.2816 14.57232841470605
ORBCOMM FM113           
1 41185U 15081G   24293.92551241  .00003619  00000+0  82992-3 0  9994
2 41185  46.9999 249.7038 0001555  11.6433 348.4488 14.57217220470599
